<?xml version="1.0" encoding="UTF-8"?>
<kml xmlns="http://www.opengis.net/kml/2.2" xmlns:gx="http://www.google.com/kml/ext/2.2" xmlns:kml="http://www.opengis.net/kml/2.2" xmlns:atom="http://www.w3.org/2005/Atom">
<Document>
	<name>Miglionico</name>
	<open>1</open>
	<StyleMap id="m_ylw-pushpin">
		<Pair>
			<key>normal</key>
			<styleUrl>#s_ylw-pushpin</styleUrl>
		</Pair>
		<Pair>
			<key>highlight</key>
			<styleUrl>#s_ylw-pushpin_hl0</styleUrl>
		</Pair>
	</StyleMap>
	<StyleMap id="m_ylw-pushpin0">
		<Pair>
			<key>normal</key>
			<styleUrl>#s_ylw-pushpin0</styleUrl>
		</Pair>
		<Pair>
			<key>highlight</key>
			<styleUrl>#s_ylw-pushpin_hl</styleUrl>
		</Pair>
	</StyleMap>
	<Style id="s_ylw-pushpin">
		<IconStyle>
			<scale>1.1</scale>
			<Icon>
				<href>http://maps.google.com/mapfiles/kml/pushpin/ylw-pushpin.png</href>
			</Icon>
			<hotSpot x="20" y="2" xunits="pixels" yunits="pixels"/>
		</IconStyle>
	</Style>
	<Style id="s_ylw-pushpin0">
		<IconStyle>
			<scale>1.1</scale>
			<Icon>
				<href>http://maps.google.com/mapfiles/kml/pushpin/ylw-pushpin.png</href>
			</Icon>
			<hotSpot x="20" y="2" xunits="pixels" yunits="pixels"/>
		</IconStyle>
	</Style>
	<Style id="s_ylw-pushpin_hl">
		<IconStyle>
			<scale>1.3</scale>
			<Icon>
				<href>http://maps.google.com/mapfiles/kml/pushpin/ylw-pushpin.png</href>
			</Icon>
			<hotSpot x="20" y="2" xunits="pixels" yunits="pixels"/>
		</IconStyle>
	</Style>
	<Style id="s_ylw-pushpin_hl0">
		<IconStyle>
			<scale>1.3</scale>
			<Icon>
				<href>http://maps.google.com/mapfiles/kml/pushpin/ylw-pushpin.png</href>
			</Icon>
			<hotSpot x="20" y="2" xunits="pixels" yunits="pixels"/>
		</IconStyle>
	</Style>
	<Placemark>
		<name>21263</name>
		<snippet></snippet>
		<LookAt>
			<longitude>16.55296167021424</longitude>
			<latitude>40.58483720685401</latitude>
			<altitude>0</altitude>
			<heading>0.04484787214904921</heading>
			<tilt>0</tilt>
			<range>634.8908925973554</range>
			<gx:altitudeMode>relativeToSeaFloor</gx:altitudeMode>
		</LookAt>
		<styleUrl>#m_ylw-pushpin</styleUrl>
		<MultiGeometry>
			<Point>
				<gx:drawOrder>1</gx:drawOrder>
				<coordinates>16.55296167021424,40.58483720685401,0</coordinates>
			</Point>
		</MultiGeometry>
	</Placemark>
	<Placemark>
		<name>21264</name>
		<snippet></snippet>
		<LookAt>
			<longitude>16.55312655428164</longitude>
			<latitude>40.58354000315195</latitude>
			<altitude>0</altitude>
			<heading>0.04484787214904921</heading>
			<tilt>0</tilt>
			<range>634.8908925973554</range>
			<gx:altitudeMode>relativeToSeaFloor</gx:altitudeMode>
		</LookAt>
		<styleUrl>#m_ylw-pushpin0</styleUrl>
		<MultiGeometry>
			<Point>
				<gx:drawOrder>1</gx:drawOrder>
				<coordinates>16.55312655428164,40.58354000315195,0</coordinates>
			</Point>
		</MultiGeometry>
	</Placemark>
	<Placemark>
		<name>21265</name>
		<snippet></snippet>
		<LookAt>
			<longitude>16.55391811220461</longitude>
			<latitude>40.58415326656395</latitude>
			<altitude>0</altitude>
			<heading>0.04484787214904921</heading>
			<tilt>0</tilt>
			<range>634.8908925973554</range>
			<gx:altitudeMode>relativeToSeaFloor</gx:altitudeMode>
		</LookAt>
		<styleUrl>#m_ylw-pushpin0</styleUrl>
		<MultiGeometry>
			<Point>
				<gx:drawOrder>1</gx:drawOrder>
				<coordinates>16.55391811220461,40.58415326656395,0</coordinates>
			</Point>
		</MultiGeometry>
	</Placemark>
	<Placemark>
		<name>21045</name>
		<snippet></snippet>
		<LookAt>
			<longitude>16.55118595141264</longitude>
			<latitude>40.58588724767327</latitude>
			<altitude>0</altitude>
			<heading>0.04484787214904921</heading>
			<tilt>0</tilt>
			<range>634.8908925973554</range>
			<gx:altitudeMode>relativeToSeaFloor</gx:altitudeMode>
		</LookAt>
		<styleUrl>#m_ylw-pushpin0</styleUrl>
		<MultiGeometry>
			<Point>
				<gx:drawOrder>1</gx:drawOrder>
				<coordinates>16.55118595141264,40.58588724767327,0</coordinates>
			</Point>
		</MultiGeometry>
	</Placemark>
	<Placemark>
		<name>21046</name>
		<snippet></snippet>
		<LookAt>
			<longitude>16.55216654603754</longitude>
			<latitude>40.58637853810611</latitude>
			<altitude>0</altitude>
			<heading>0.04484787214904921</heading>
			<tilt>0</tilt>
			<range>634.8908925973554</range>
			<gx:altitudeMode>relativeToSeaFloor</gx:altitudeMode>
		</LookAt>
		<styleUrl>#m_ylw-pushpin0</styleUrl>
		<MultiGeometry>
			<Point>
				<gx:drawOrder>1</gx:drawOrder>
				<coordinates>16.55216654603754,40.58637853810611,0</coordinates>
			</Point>
		</MultiGeometry>
	</Placemark>
	<Placemark>
		<name>21048</name>
		<snippet></snippet>
		<LookAt>
			<longitude>16.55202196181449</longitude>
			<latitude>40.58508586079482</latitude>
			<altitude>0</altitude>
			<heading>0.04484787214904921</heading>
			<tilt>0</tilt>
			<range>634.8908925973554</range>
			<gx:altitudeMode>relativeToSeaFloor</gx:altitudeMode>
		</LookAt>
		<styleUrl>#m_ylw-pushpin0</styleUrl>
		<MultiGeometry>
			<Point>
				<gx:drawOrder>1</gx:drawOrder>
				<coordinates>16.55202196181449,40.58508586079482,0</coordinates>
			</Point>
		</MultiGeometry>
	</Placemark>
	<Placemark>
		<name>21261</name>
		<snippet></snippet>
		<LookAt>
			<longitude>16.55266279852211</longitude>
			<latitude>40.58564648821114</latitude>
			<altitude>0</altitude>
			<heading>0.04484787214904921</heading>
			<tilt>0</tilt>
			<range>634.8908925973554</range>
			<gx:altitudeMode>relativeToSeaFloor</gx:altitudeMode>
		</LookAt>
		<styleUrl>#m_ylw-pushpin0</styleUrl>
		<MultiGeometry>
			<Point>
				<gx:drawOrder>1</gx:drawOrder>
				<coordinates>16.55266279852211,40.58564648821114,0</coordinates>
			</Point>
		</MultiGeometry>
	</Placemark>
	<Placemark>
		<name>21044</name>
		<snippet></snippet>
		<LookAt>
			<longitude>16.55060076678511</longitude>
			<latitude>40.58531737456912</latitude>
			<altitude>0</altitude>
			<heading>0.04484787214904921</heading>
			<tilt>0</tilt>
			<range>634.8908925973554</range>
			<gx:altitudeMode>relativeToSeaFloor</gx:altitudeMode>
		</LookAt>
		<styleUrl>#m_ylw-pushpin0</styleUrl>
		<MultiGeometry>
			<Point>
				<gx:drawOrder>1</gx:drawOrder>
				<coordinates>16.55060076678511,40.58531737456912,0</coordinates>
			</Point>
		</MultiGeometry>
	</Placemark>
	<Placemark>
		<name>21047</name>
		<snippet></snippet>
		<LookAt>
			<longitude>16.55139114794735</longitude>
			<latitude>40.58449227697692</latitude>
			<altitude>0</altitude>
			<heading>0.04484787214904921</heading>
			<tilt>0</tilt>
			<range>634.8908925973554</range>
			<gx:altitudeMode>relativeToSeaFloor</gx:altitudeMode>
		</LookAt>
		<styleUrl>#m_ylw-pushpin0</styleUrl>
		<MultiGeometry>
			<Point>
				<gx:drawOrder>1</gx:drawOrder>
				<coordinates>16.55139114794735,40.58449227697692,0</coordinates>
			</Point>
		</MultiGeometry>
	</Placemark>
	<Placemark>
		<name>21262</name>
		<snippet></snippet>
		<LookAt>
			<longitude>16.55222429183689</longitude>
			<latitude>40.58395324121108</latitude>
			<altitude>0</altitude>
			<heading>0.04484787214904921</heading>
			<tilt>0</tilt>
			<range>634.8908925973554</range>
			<gx:altitudeMode>relativeToSeaFloor</gx:altitudeMode>
		</LookAt>
		<styleUrl>#m_ylw-pushpin0</styleUrl>
		<MultiGeometry>
			<Point>
				<gx:drawOrder>1</gx:drawOrder>
				<coordinates>16.55222429183689,40.58395324121108,0</coordinates>
			</Point>
		</MultiGeometry>
	</Placemark>
</Document>
</kml>
